2026-134D               
1 69541U 26134D   26182.10868065  .00005322  00000+0  33447-3 0  9999
2 69541  97.7030 252.2758 0015412 222.8324 137.1705 15.09585007  2400
2026-134E               
1 69542U 26134E   26182.10844834  .00005338  00000+0  33533-3 0  9991
2 69542  97.7047 252.2796 0015111 223.6124 136.3911 15.09606941  2405
2026-134F               
1 69543U 26134F   26182.10796470  .00005301  00000+0  33266-3 0  9997
2 69543  97.6999 252.2711 0014375 225.3901 134.6156 15.09652736  2406
2026-134G               
1 69544U 26134G   26182.10708138  .00005314  00000+0  33266-3 0  9996
2 69544  97.7044 252.2808 0014889 226.1366 133.8633 15.09736536  2402
2026-134H               
1 69545U 26134H   26182.10638785  .00005376  00000+0  33593-3 0  9998
2 69545  97.7027 252.2790 0014714 227.6983 132.3000 15.09802814  2395
STARLINK-37880          
1 69546U 26135A   26182.07915543  .00382024  00000+0  19071-2 0  9998
2 69546  97.2844 209.8778 0000806  51.4029 308.7311 15.80838645  2454
STARLINK-37881          
1 69547U 26135B   26182.07858748  .00400742  00000+0  19940-2 0  9995
2 69547  97.2840 209.8784 0000856  51.6627 308.4718 15.80862035  2457
STARLINK-37265          
1 69548U 26135C   26182.07791424  .00308731  00000+0  15540-2 0  9990
2 69548  97.2842 209.8790 0001025  93.2978 266.8408 15.80845424  2453
STARLINK-37871          
1 69549U 26135D   26182.07698198  .00400326  00000+0  19922-2 0  9996
2 69549  97.2844 209.8807 0000812  58.1388 301.9959 15.80859294  2455
STARLINK-37865          
1 69550U 26135E   26182.07553628  .00365861  00000+0  18297-2 0  9994
2 69550  97.2832 209.8825 0000738  20.0020 340.1277 15.80839995  2456
STARLINK-37862          
1 69551U 26135F   26182.00943514  .00425869  00000+0  20971-2 0  9992
2 69551  97.2833 209.8195 0000930 132.9934 227.1412 15.81025842  2442
STARLINK-37861          
1 69552U 26135G   26182.07082139  .00323367  00000+0  16289-2 0  9994
2 69552  97.2840 209.8899 0001955   2.7288 357.3991 15.80792459  2459
STARLINK-37859          
1 69553U 26135H   26182.19649678  .00215640  00000+0  10931-2 0  9997
2 69553  97.2840 210.0245 0000757  97.8695 262.2660 15.80931518  2475
STARLINK-37860          
1 69554U 26135J   26182.06988003 -.00653545  00000+0 -38948-2 0  9992
2 69554  97.2825 209.8900 0006652  28.0986 332.0640 15.79475021  2454
STARLINK-37858          
1 69555U 26135K   26182.06758199  .07130209  00000+0  25825-1 0  9995
2 69555  97.2838 209.8946 0001995 172.5643 187.5657 15.83922090  2458
STARLINK-37927          
1 69556U 26135L   26182.00426926  .00320697  00000+0  16022-2 0  9995
2 69556  97.2853 209.8258 0002434  33.6103 326.5320 15.80979153  2449
STARLINK-37929          
1 69557U 26135M   26181.49702781  .00415688  00000+0  20535-2 0  9993
2 69557  97.2830 209.2916 0001589  24.5239 335.6104 15.80983328  2360
STARLINK-37954          
1 69558U 26135N   26182.06551373  .00422289  00000+0  20739-2 0  9998
2 69558  97.2838 209.8971 0001700  99.9043 260.2417 15.81094195  2456
STARLINK-37958          
1 69559U 26135P   26182.06287800  .05041202  00000+0  20041-1 0  9992
2 69559  97.2850 209.8996 0010774 197.9195 162.1696 15.82717761  2457
STARLINK-37950          
1 69560U 26135Q   26181.99960215  .00544182  00000+0  26156-2 0  9997
2 69560  97.2845 209.8339 0000145 149.2256 210.9021 15.81249498  2442
STARLINK-37952          
1 69561U 26135R   26182.06150282  .00154334  00000+0  78821-3 0  9995
2 69561  97.2834 209.9023 0001334  90.2435 269.8986 15.80929218  2455
STARLINK-37935          
1 69562U 26135S   26182.06073213  .00387831  00000+0  19253-2 0  9997
2 69562  97.2839 209.9039 0001551 144.6523 215.4849 15.80946320  2459
STARLINK-37936          
1 69563U 26135T   26182.16670139 -.00105948  00000+0 -55762-3 0  9994
2 69563  97.2835 210.0338 0001386  98.6186 184.0856 15.80873840  3568
STARLINK-37932          
1 69564U 26135U   26181.54641397  .00477672  00000+0  23416-2 0  9994
2 69564  97.2811 209.3787 0000910 236.5058 123.6124 15.80990840  2370
STARLINK-37916          
1 69565U 26135V   26182.05281672  .00261847  00000+0  13184-2 0  9994
2 69565  97.2821 209.9169 0000976 345.5530  14.5710 15.80960891  2451
STARLINK-37909          
1 69566U 26135W   26182.04649544  .00326771  00000+0  16350-2 0  9996
2 69566  97.2817 209.9239 0001342  12.8393 347.2909 15.80930694  2458
STARLINK-37934          
1 69567U 26135X   26181.54329690  .00376571  00000+0  18562-2 0  9998
2 69567  97.2826 209.3835 0000775 357.5462   2.5802 15.81129897  2370
STARLINK-37938          
1 69568U 26135Y   26182.04725694  .00274885  00000+0  13858-2 0  9997
2 69568  97.2820 209.9222 0001181  26.4847 333.6481 15.80898661  2453
STARLINK-37924          
1 69569U 26135Z   26182.17109491  .00263691  00000+0  13281-2 0  9996
2 69569  97.2826 210.0595 0001683 118.3609 241.7829 15.80949767  2471
SHIJIAN-31 (SJ-31)      
1 69570U 26136A   26182.02052610 -.00000419  00000+0  00000+0 0  9993
2 69570  63.4806 354.6536 6940858 171.7873 212.4439  1.92228497   359
