OBJECT_NAME,OBJECT_ID,EPOCH,MEAN_MOTION,ECCENTRICITY,INCLINATION,RA_OF_ASC_NODE,ARG_OF_PERICENTER,MEAN_ANOMALY,EPHEMERIS_TYPE,CLASSIFICATION_TYPE,NORAD_CAT_ID,ELEMENT_SET_NO,REV_AT_EPOCH,BSTAR,MEAN_MOTION_DOT,MEAN_MOTION_DDOT
2026-134D,2026-134D,2026-07-01T02:36:30.008160,15.09585007,.0015412,97.7030,252.2758,222.8324,137.1705,0,U,69541,999,240,.33447E-3,.5322E-4,0
2026-134E,2026-134E,2026-07-01T02:36:09.936576,15.09606941,.0015111,97.7047,252.2796,223.6124,136.3911,0,U,69542,999,240,.33533E-3,.5338E-4,0
2026-134F,2026-134F,2026-07-01T02:35:28.150080,15.09652736,.0014375,97.6999,252.2711,225.3901,134.6156,0,U,69543,999,240,.33266E-3,.5301E-4,0
2026-134G,2026-134G,2026-07-01T02:34:11.831232,15.09736536,.0014889,97.7044,252.2808,226.1366,133.8633,0,U,69544,999,240,.33266E-3,.5314E-4,0
2026-134H,2026-134H,2026-07-01T02:33:11.910240,15.09802814,.0014714,97.7027,252.2790,227.6983,132.3000,0,U,69545,999,239,.33593E-3,.5376E-4,0
STARLINK-37880,2026-135A,2026-07-01T01:53:59.029152,15.80838645,.0000806,97.2844,209.8778,51.4029,308.7311,0,U,69546,999,245,.19071E-2,.382024E-2,0
STARLINK-37881,2026-135B,2026-07-01T01:53:09.958272,15.80862035,.0000856,97.2840,209.8784,51.6627,308.4718,0,U,69547,999,245,.1994E-2,.400742E-2,0
STARLINK-37265,2026-135C,2026-07-01T01:52:11.790336,15.80845424,.0001025,97.2842,209.8790,93.2978,266.8408,0,U,69548,999,245,.1554E-2,.308731E-2,0
STARLINK-37871,2026-135D,2026-07-01T01:50:51.243072,15.80859294,.0000812,97.2844,209.8807,58.1388,301.9959,0,U,69549,999,245,.19922E-2,.400326E-2,0
STARLINK-37865,2026-135E,2026-07-01T01:48:46.334592,15.80839995,.0000738,97.2832,209.8825,20.0020,340.1277,0,U,69550,999,245,.18297E-2,.365861E-2,0
STARLINK-37862,2026-135F,2026-07-01T00:13:35.196096,15.81025842,.000093,97.2833,209.8195,132.9934,227.1412,0,U,69551,999,244,.20971E-2,.425869E-2,0
STARLINK-37861,2026-135G,2026-07-01T01:41:58.968096,15.80792459,.0001955,97.2840,209.8899,2.7288,357.3991,0,U,69552,999,245,.16289E-2,.323367E-2,0
STARLINK-37859,2026-135H,2026-07-01T04:42:57.321792,15.80931518,.0000757,97.2840,210.0245,97.8695,262.2660,0,U,69553,999,247,.10931E-2,.21564E-2,0
STARLINK-37860,2026-135J,2026-07-01T01:40:37.634592,15.79475021,.0006652,97.2825,209.8900,28.0986,332.0640,0,U,69554,999,245,-.38948E-2,-.653545E-2,0
STARLINK-37858,2026-135K,2026-07-01T01:37:19.083936,15.83922090,.0001995,97.2838,209.8946,172.5643,187.5657,0,U,69555,999,245,.25825E-1,.7130209E-1,0
STARLINK-37927,2026-135L,2026-07-01T00:06:08.864064,15.80979153,.0002434,97.2853,209.8258,33.6103,326.5320,0,U,69556,999,244,.16022E-2,.320697E-2,0
STARLINK-37929,2026-135M,2026-06-30T11:55:43.202784,15.80983328,.00015893,97.2830,209.2916,24.5239,335.6104,0,U,69557,999,236,.20534504E-2,.415688E-2,0
STARLINK-37954,2026-135N,2026-07-01T01:34:20.386272,15.81094195,.00017,97.2838,209.8971,99.9043,260.2417,0,U,69558,999,245,.20739E-2,.422289E-2,0
STARLINK-37958,2026-135P,2026-07-01T01:30:32.659200,15.82717761,.0010774,97.2850,209.8996,197.9195,162.1696,0,U,69559,999,245,.20041E-1,.5041202E-1,0
STARLINK-37950,2026-135Q,2026-06-30T23:59:25.625760,15.81249498,.0000145,97.2845,209.8339,149.2256,210.9021,0,U,69560,999,244,.26156E-2,.544182E-2,0
STARLINK-37952,2026-135R,2026-07-01T01:28:33.843648,15.80929218,.0001334,97.2834,209.9023,90.2435,269.8986,0,U,69561,999,245,.78821E-3,.154334E-2,0
STARLINK-37935,2026-135S,2026-07-01T01:27:27.256032,15.80946320,.0001551,97.2839,209.9039,144.6523,215.4849,0,U,69562,999,245,.19253E-2,.387831E-2,0
STARLINK-37936,2026-135T,2026-07-01T04:00:03.000096,15.80873840,.0001386,97.2835,210.0338,98.6186,184.0856,0,U,69563,999,356,-.55762E-3,-.105948E-2,0
STARLINK-37932,2026-135U,2026-06-30T13:06:50.167008,15.80990840,.00009105,97.2811,209.3787,236.5058,123.6124,0,U,69564,999,237,.23416362E-2,.477672E-2,0
STARLINK-37916,2026-135V,2026-07-01T01:16:03.364608,15.80960891,.0000976,97.2821,209.9169,345.5530,14.5710,0,U,69565,999,245,.13184E-2,.261847E-2,0
STARLINK-37909,2026-135W,2026-07-01T01:06:57.206016,15.80930694,.0001342,97.2817,209.9239,12.8393,347.2909,0,U,69566,999,245,.1635E-2,.326771E-2,0
STARLINK-37934,2026-135X,2026-06-30T13:02:20.852160,15.81129897,.00007759,97.2826,209.3835,357.5462,2.5802,0,U,69567,999,237,.18562193E-2,.376571E-2,0
STARLINK-37938,2026-135Y,2026-07-01T01:08:02.999616,15.80898661,.0001181,97.2820,209.9222,26.4847,333.6481,0,U,69568,999,245,.13858E-2,.274885E-2,0
STARLINK-37924,2026-135Z,2026-07-01T04:06:22.600224,15.80949767,.0001683,97.2826,210.0595,118.3609,241.7829,0,U,69569,999,247,.13281E-2,.263691E-2,0
SHIJIAN-31 (SJ-31),2026-136A,2026-07-01T00:29:33.455040,1.92228497,.6940858,63.4806,354.6536,171.7873,212.4439,0,U,69570,999,35,0,-.419E-5,0
